{"type":"FeatureCollection","features":[{"type":"Feature","properties":{"name":"C.E.I.P. López Mayor","data6":"MEDITERRANEA DE CATERING SL","direccion":"AVENIDA DE MALAGA,S/N., 29313","empresa":1,"municipio":"Villanueva del Trabuco"},"geometry":{"type":"Point","coordinates":[-4.341162,37.026697]}},{"type":"Feature","properties":{"name":"E.I. Gloria Fuertes","data6":"MEDITERRANEA DE CATERING SL","direccion":"C/HILERA, 12, 29007","empresa":1,"municipio":"Málaga"},"geometry":{"type":"Point","coordinates":[-4.431225,36.719058]}},{"type":"Feature","properties":{"name":"C.E.I.P. Cayetano Bolívar","data6":"MEDITERRANEA DE CATERING SL","direccion":"C/ ROMERO,2-BDA.SANTA ROSALIA, 29591","empresa":1,"municipio":"Málaga"},"geometry":{"type":"Point","coordinates":[-4.571216,36.732279]}},{"type":"Feature","properties":{"name":"C.E.I.P. Tartessos","data6":"MEDITERRANEA DE CATERING SL","direccion":"C/NTA.SRA. DE LAS CANDELAS, 37, 29004","empresa":1,"municipio":"Málaga"},"geometry":{"type":"Point","coordinates":[-4.454232,36.689894]}},{"type":"Feature","properties":{"name":"C.E.I.P. Neill","data6":"MEDITERRANEA DE CATERING SL","direccion":"ARENISCA,13., 29006","empresa":1,"municipio":"Málaga"},"geometry":{"type":"Point","coordinates":[-4.455654,36.711748]}},{"type":"Feature","properties":{"name":"C.E.I.P. Salvador Allende","data6":"MEDITERRANEA DE CATERING SL","direccion":"VICTOR HUGO,3. (PUERTO DE LA TORRE), 29190","empresa":1,"municipio":"Málaga"},"geometry":{"type":"Point","coordinates":[-4.482393,36.735725]}},{"type":"Feature","properties":{"name":"C.E.I.P. La Axarquía","data6":"MEDITERRANEA DE CATERING SL","direccion":"CAMINO VIEJO DE MALAGA S/N, 29700","empresa":1,"municipio":"Vélez-Málaga"},"geometry":{"type":"Point","coordinates":[-4.106447,36.768199]}},{"type":"Feature","properties":{"name":"C.E.I.P. Almudena Grandes","data6":"MEDITERRANEA DE CATERING SL","direccion":"DOCTOR MIGUEL DIAZ RECIO S/N, 29010","empresa":1,"municipio":"Málaga"},"geometry":{"type":"Point","coordinates":[-4.464627,36.722016]}},{"type":"Feature","properties":{"name":"C.E.I.P. Victoria Kent","data6":"MEDITERRANEA DE CATERING SL","direccion":"CAMINO DEL PATO,6., 29004","empresa":1,"municipio":"Málaga"},"geometry":{"type":"Point","coordinates":[-4.451018,36.691232]}},{"type":"Feature","properties":{"name":"C.E.I.P. Julio Caro Baroja","data6":"MEDITERRANEA DE CATERING SL","direccion":"C/ CONDE LUCANOR, S/N.(URB.GUADALMAR), 29004","empresa":1,"municipio":"Málaga"},"geometry":{"type":"Point","coordinates":[-4.4606,36.669655]}},{"type":"Feature","properties":{"name":"C.E.I.P. Virgen de Gracia","data6":"MEDITERRANEA DE CATERING SL","direccion":"PLAZA DE SAN ANTONIO S/N, 29300","empresa":1,"municipio":"Archidona"},"geometry":{"type":"Point","coordinates":[-4.39111,37.092856]}},{"type":"Feature","properties":{"name":"C.E.I.P. Serafín Estébanez Calderón","data6":"MEDITERRANEA DE CATERING SL","direccion":"AVDA JUAN XXIII,25., 29566","empresa":1,"municipio":"Casarabonela"},"geometry":{"type":"Point","coordinates":[-4.842878,36.786888]}},{"type":"Feature","properties":{"name":"C.E.I.P. Virgen de Belén","data6":"MEDITERRANEA DE CATERING SL","direccion":"AVDA. VIRGEN DE BELEN, 7-10, 29004","empresa":1,"municipio":"Málaga"},"geometry":{"type":"Point","coordinates":[-4.456513,36.694488]}},{"type":"Feature","properties":{"name":"C.E.I.P. Ricardo León","data6":"MEDITERRANEA DE CATERING SL","direccion":"ARCHIDONA, 30., 29007","empresa":1,"municipio":"Málaga"},"geometry":{"type":"Point","coordinates":[-4.453727,36.71777]}},{"type":"Feature","properties":{"name":"C.E.I.P. Gregorio Marañón","data6":"MEDITERRANEA DE CATERING SL","direccion":"URBANIZACION HACIENDA MANILA, 2, 29720","empresa":1,"municipio":"Rincón de la Victoria"},"geometry":{"type":"Point","coordinates":[-4.309175,36.720432]}},{"type":"Feature","properties":{"name":"C.E.I.P. Ciudad de Oscua","data6":"ARAMARK SERVICIOS DE CATERING SLU","direccion":"BDA.LOS NARANJOS, 29230","empresa":3,"municipio":"Villanueva de la Concepción"},"geometry":{"type":"Point","coordinates":[-4.531845,36.932952]}},{"type":"Feature","properties":{"name":"C.E.I.P. Virgen de la Candelaria","data6":"ARAMARK SERVICIOS DE CATERING SLU","direccion":"C/ FRANCISCO DE COALLA, 28, 29170","empresa":3,"municipio":"Colmenar"},"geometry":{"type":"Point","coordinates":[-4.339505,36.90584]}},{"type":"Feature","properties":{"name":"I.E.S. Manuel Romero","data6":"ARAMARK SERVICIOS DE CATERING SLU","direccion":"BARRIADA DE LOS NARANJOS, 29230","empresa":3,"municipio":"Villanueva de la Concepción"},"geometry":{"type":"Point","coordinates":[-4.533918,36.932837]}},{"type":"Feature","properties":{"name":"C.E.I.P. José Gil López","data6":"CATERING EL CANTARO SL","direccion":"C/ DEL RIO, S/N., 29750","empresa":2,"municipio":"Algarrobo"},"geometry":{"type":"Point","coordinates":[-4.036886,36.773792]}},{"type":"Feature","properties":{"name":"C.E.I.P. El Chorro","data6":"CATERING EL CANTARO SL","direccion":"MOLINOS DE ARRIBA, 175, 29120","empresa":2,"municipio":"Alhaurín el Grande"},"geometry":{"type":"Point","coordinates":[-4.689044,36.636608]}},{"type":"Feature","properties":{"name":"C.E.I.P. San Juan","data6":"CATERING EL CANTARO SL","direccion":"CTRA.DEL VALLE S/N, 29200","empresa":2,"municipio":"Antequera"},"geometry":{"type":"Point","coordinates":[-4.559568,37.009235]}},{"type":"Feature","properties":{"name":"C.E.I.P. Félix Rodríguez de la Fuente","data6":"CATERING EL CANTARO SL","direccion":"SAN ISIDRO S/N, 29540","empresa":2,"municipio":"Antequera"},"geometry":{"type":"Point","coordinates":[-4.728936,37.03451]}},{"type":"Feature","properties":{"name":"C.E.I.P. Miguel Fortes Fortes","data6":"CATERING EL CANTARO SL","direccion":"LOS ESCOLARES,12., 29718","empresa":2,"municipio":"Benamargosa"},"geometry":{"type":"Point","coordinates":[-4.192833,36.834847]}},{"type":"Feature","properties":{"name":"C.E.I.P. San Juan Bautista","data6":"CATERING EL CANTARO SL","direccion":"C/ REAL, 80, 29220","empresa":2,"municipio":"Cuevas Bajas"},"geometry":{"type":"Point","coordinates":[-4.489318,37.235541]}},{"type":"Feature","properties":{"name":"E.I. Los Claveles","data6":"CATERING EL CANTARO SL","direccion":"C/ LOS CLAVELES, 3, 29649","empresa":2,"municipio":"Mijas"},"geometry":{"type":"Point","coordinates":[-4.675359,36.507109]}},{"type":"Feature","properties":{"name":"C.E.I.P. Ramón Lago","data6":"CATERING EL CANTARO SL","direccion":"CONSTITUCION,S/N., 29688","empresa":2,"municipio":"Estepona"},"geometry":{"type":"Point","coordinates":[-5.055824,36.461579]}},{"type":"Feature","properties":{"name":"C.E.I.P. Santo Tomás de Aquino","data6":"CATERING EL CANTARO SL","direccion":"AV.SANTO TOMAS DE AQUINO S/N, 29680","empresa":2,"municipio":"Estepona"},"geometry":{"type":"Point","coordinates":[-5.154275,36.431358]}},{"type":"Feature","properties":{"name":"C.E.I.P. Simón Fernández","data6":"CATERING EL CANTARO SL","direccion":"PZA.DEL RELOJ,S/N., 29680","empresa":2,"municipio":"Estepona"},"geometry":{"type":"Point","coordinates":[-5.146472,36.425374]}},{"type":"Feature","properties":{"name":"C.E.PR. Víctor de la Serna","data6":"CATERING EL CANTARO SL","direccion":"AVDA.SAN LORENZO,33., 29680","empresa":2,"municipio":"Estepona"},"geometry":{"type":"Point","coordinates":[-5.150159,36.425667]}},{"type":"Feature","properties":{"name":"C.E.I.P. Enrique Ginés","data6":"CATERING EL CANTARO SL","direccion":"CARRETERA DE CIRCUNVALACION, S/N., 29788","empresa":2,"municipio":"Frigiliana"},"geometry":{"type":"Point","coordinates":[-3.899027,36.791521]}},{"type":"Feature","properties":{"name":"C.E.I.P. Sohail","data6":"CATERING EL CANTARO SL","direccion":"CONDES DE SAN ISIDRO,S/N., 29640","empresa":2,"municipio":"Fuengirola"},"geometry":{"type":"Point","coordinates":[-4.626122,36.535103]}},{"type":"Feature","properties":{"name":"C.E.I.P. Francisca Ruiz","data6":"CATERING EL CANTARO SL","direccion":"TAJO BANDERAS,S/N., 29611","empresa":2,"municipio":"Istán"},"geometry":{"type":"Point","coordinates":[-4.95167,36.583316]}},{"type":"Feature","properties":{"name":"C.E.I.P. Marqués de Iznate","data6":"CATERING EL CANTARO SL","direccion":"C/ VELEZ 1, 29792","empresa":2,"municipio":"Iznate"},"geometry":{"type":"Point","coordinates":[-4.182766,36.776613]}},{"type":"Feature","properties":{"name":"C.E.I.P. Nuestra Señora de la Luz","data6":"CATERING EL CANTARO SL","direccion":"AVDA.DE LA LUZ,30., 29004","empresa":2,"municipio":"Málaga"},"geometry":{"type":"Point","coordinates":[-4.454483,36.697349]}},{"type":"Feature","properties":{"name":"C.E.I.P. Ciudad de Mobile","data6":"CATERING EL CANTARO SL","direccion":"PLAZA CONDE DE FERRERIA, Nº 11, 29009","empresa":2,"municipio":"Málaga"},"geometry":{"type":"Point","coordinates":[-4.429816,36.732569]}},{"type":"Feature","properties":{"name":"C.E.I.P. La Biznaga","data6":"CATERING EL CANTARO SL","direccion":"SANCHEZ COTAN, 31., 29018","empresa":2,"municipio":"Málaga"},"geometry":{"type":"Point","coordinates":[-4.373023,36.732093]}},{"type":"Feature","properties":{"name":"C.E.I.P. Ardira","data6":"CATERING EL CANTARO SL","direccion":"CORCHERITO,5., 29004","empresa":2,"municipio":"Málaga"},"geometry":{"type":"Point","coordinates":[-4.451382,36.697061]}},{"type":"Feature","properties":{"name":"C.E.I.P. Cristo de Mena","data6":"CATERING EL CANTARO SL","direccion":"MONTALBAN,10., 29002","empresa":2,"municipio":"Málaga"},"geometry":{"type":"Point","coordinates":[-4.428818,36.715588]}},{"type":"Feature","properties":{"name":"C.E.I.P. Hogarsol","data6":"CATERING EL CANTARO SL","direccion":"AYALA,86., 29002","empresa":2,"municipio":"Málaga"},"geometry":{"type":"Point","coordinates":[-4.436693,36.705823]}},{"type":"Feature","properties":{"name":"C.E.I.P. Luis Braille","data6":"CATERING EL CANTARO SL","direccion":"PZA.GUERRERO STRACHAN,S/N., 29007","empresa":2,"municipio":"Málaga"},"geometry":{"type":"Point","coordinates":[-4.436529,36.719868]}},{"type":"Feature","properties":{"name":"C.E.I.P. Ciudad de Popayán","data6":"CATERING EL CANTARO SL","direccion":"AVDA.HERRERA ORIA, 86., 29007","empresa":2,"municipio":"Málaga"},"geometry":{"type":"Point","coordinates":[-4.446117,36.719179]}},{"type":"Feature","properties":{"name":"E.I. Martiricos","data6":"CATERING EL CANTARO SL","direccion":"PASEO MARTIRICOS, 2, 29009","empresa":2,"municipio":"Málaga"},"geometry":{"type":"Point","coordinates":[-4.42681,36.727698]}},{"type":"Feature","properties":{"name":"C.E.I.P. José María Hinojosa","data6":"CATERING EL CANTARO SL","direccion":"HEROES DE SOSTOA 49, 29002","empresa":2,"municipio":"Málaga"},"geometry":{"type":"Point","coordinates":[-4.434664,36.70833]}},{"type":"Feature","properties":{"name":"E.I. Gloria Fuertes","data6":"CATERING EL CANTARO SL","direccion":"C/ BELEN S/N, 29680","empresa":2,"municipio":"Estepona"},"geometry":{"type":"Point","coordinates":[-5.150216,36.426314]}},{"type":"Feature","properties":{"name":"E.I. Pinolivo","data6":"CATERING EL CANTARO SL","direccion":"LAS CHAPAS, 29600","empresa":2,"municipio":"Marbella"},"geometry":{"type":"Point","coordinates":[-4.793012,36.501483]}},{"type":"Feature","properties":{"name":"C.E.I.P. Domingo Lozano","data6":"CATERING EL CANTARO SL","direccion":"VIRGEN DE LA ESPERANZA S/N, 29007","empresa":2,"municipio":"Málaga"},"geometry":{"type":"Point","coordinates":[-4.445849,36.718102]}},{"type":"Feature","properties":{"name":"C.E.I.P. Algazara","data6":"CATERING EL CANTARO SL","direccion":"C/ AMADEO VIVES, S/N (URB. RETAMAR), 29130","empresa":2,"municipio":"Alhaurín de la Torre"},"geometry":{"type":"Point","coordinates":[-4.540893,36.662781]}},{"type":"Feature","properties":{"name":"C.E.I.P. Clara Campoamor","data6":"CATERING EL CANTARO SL","direccion":"AVDA. IMPERIO ARGENTINA, 2 (ZONA MARTÍN CARPENA), 29004","empresa":2,"municipio":"Málaga"},"geometry":{"type":"Point","coordinates":[-4.45745,36.68346]}},{"type":"Feature","properties":{"name":"C.E.I.P. Vicente Aleixandre","data6":"CATERING EL CANTARO SL","direccion":"CAMINO LA TERMICA,21., 29004","empresa":2,"municipio":"Málaga"},"geometry":{"type":"Point","coordinates":[-4.447378,36.688801]}},{"type":"Feature","properties":{"name":"C.E.I.P. Pablo Picasso","data6":"CATERING EL CANTARO SL","direccion":"OCAÑA,12., 29691","empresa":2,"municipio":"Manilva"},"geometry":{"type":"Point","coordinates":[-5.252328,36.377204]}},{"type":"Feature","properties":{"name":"C.E.I.P. Los Olivos","data6":"CATERING EL CANTARO SL","direccion":"AVDA. MAYORAZGO 18-20., 29600","empresa":2,"municipio":"Marbella"},"geometry":{"type":"Point","coordinates":[-4.890221,36.515018]}},{"type":"Feature","properties":{"name":"C.E.I.P. San Pedro de Alcántara","data6":"CATERING EL CANTARO SL","direccion":"PLAZA JOSE AGUERA, S/N., 29670","empresa":2,"municipio":"Marbella"},"geometry":{"type":"Point","coordinates":[-4.991314,36.487912]}},{"type":"Feature","properties":{"name":"C.E.I.P. El Olmo","data6":"CATERING EL CANTARO SL","direccion":"CARTAMA S/N., 29650","empresa":2,"municipio":"Mijas"},"geometry":{"type":"Point","coordinates":[-4.682178,36.502646]}},{"type":"Feature","properties":{"name":"C.E.I.P. San Sebastián","data6":"CATERING EL CANTARO SL","direccion":"AVDA.MEJICO,S/N., 29650","empresa":2,"municipio":"Mijas"},"geometry":{"type":"Point","coordinates":[-4.63631,36.598467]}},{"type":"Feature","properties":{"name":"I.E.S. Carlos Álvarez","data6":"CATERING EL CANTARO SL","direccion":"C/BENITO JUAREZ 1, 29140","empresa":2,"municipio":"Málaga"},"geometry":{"type":"Point","coordinates":[-4.512846,36.671169]}},{"type":"Feature","properties":{"name":"C.E.I.P. Maestro Joaquín Herrera Álvarez","data6":"CATERING EL CANTARO SL","direccion":"AVDA. ANTONIO FERRANDIZ, 29780","empresa":2,"municipio":"Nerja"},"geometry":{"type":"Point","coordinates":[-3.884185,36.745737]}},{"type":"Feature","properties":{"name":"C.E.I.P. San Miguel","data6":"CATERING EL CANTARO SL","direccion":"AVD CASTILLA PEREZ S/N, 29780","empresa":2,"municipio":"Nerja"},"geometry":{"type":"Point","coordinates":[-3.879712,36.746523]}},{"type":"Feature","properties":{"name":"C.E.I.P. Los Llanos","data6":"CATERING EL CANTARO SL","direccion":"LOS LLANOS S/N, 29610","empresa":2,"municipio":"Ojén"},"geometry":{"type":"Point","coordinates":[-4.855575,36.563581]}},{"type":"Feature","properties":{"name":"I.E.S. Dunas de las Chapas","data6":"CATERING EL CANTARO SL","direccion":"C/ LA HACIENDA S/N URB. HACIENDA SAN M., 29604","empresa":2,"municipio":"Marbella"},"geometry":{"type":"Point","coordinates":[-4.792857,36.501862]}},{"type":"Feature","properties":{"name":"C.E.I.P. Xarblanca","data6":"CATERING EL CANTARO SL","direccion":"C/ DE LA PIMIENTA, S/N (URB. XARBLA), 29600","empresa":2,"municipio":"Marbella"},"geometry":{"type":"Point","coordinates":[-4.897722,36.527194]}},{"type":"Feature","properties":{"name":"C.E.I.P. Colina del Sol","data6":"CATERING EL CANTARO SL","direccion":"COLINA DEL SOL S/N, 29770","empresa":2,"municipio":"Torrox"},"geometry":{"type":"Point","coordinates":[-3.95383,36.76151]}},{"type":"Feature","properties":{"name":"C.E.I.P. El Faro","data6":"CATERING EL CANTARO SL","direccion":"URB. TORROX PARK TABLAZO NORTE, 29000","empresa":2,"municipio":"Torrox"},"geometry":{"type":"Point","coordinates":[-3.951483,36.74315]}},{"type":"Feature","properties":{"name":"C.E.I.P. El Morche","data6":"CATERING EL CANTARO SL","direccion":"C/ MAR S/N, 29770","empresa":2,"municipio":"Torrox"},"geometry":{"type":"Point","coordinates":[-3.988194,36.737212]}},{"type":"Feature","properties":{"name":"C.E.I.P. Nescania","data6":"CATERING EL CANTARO SL","direccion":"VIENTO S/N, 29240","empresa":2,"municipio":"Valle de Abdalajís"},"geometry":{"type":"Point","coordinates":[-4.682013,36.934189]}},{"type":"Feature","properties":{"name":"C.E.I.P. Maestro Genaro Rincón","data6":"CATERING EL CANTARO SL","direccion":"URB.CALETA DEL MEDITERRANEO,S/N., 29751","empresa":2,"municipio":"Vélez-Málaga"},"geometry":{"type":"Point","coordinates":[-4.06153,36.750781]}},{"type":"Feature","properties":{"name":"C.E.I.P. Santa Teresa","data6":"CATERING EL CANTARO SL","direccion":"MAGALLANES,4., 29600","empresa":2,"municipio":"Marbella"},"geometry":{"type":"Point","coordinates":[-4.878729,36.51069]}},{"type":"Feature","properties":{"name":"C.E.I.P. Daidín","data6":"CATERING EL CANTARO SL","direccion":"LA MORALEDA, S/N., 29679","empresa":2,"municipio":"Benahavís"},"geometry":{"type":"Point","coordinates":[-5.044672,36.524817]}},{"type":"Feature","properties":{"name":"I.E.S. Vega de Mijas","data6":"CATERING EL CANTARO SL","direccion":"SAYALONGA, S/N, 29650","empresa":2,"municipio":"Mijas"},"geometry":{"type":"Point","coordinates":[-4.637765,36.537885]}},{"type":"Feature","properties":{"name":"C.E.I.P. Pablo Ruiz Picasso","data6":"CATERING EL CANTARO SL","direccion":"SAN SALVADOR 39, 29640","empresa":2,"municipio":"Fuengirola"},"geometry":{"type":"Point","coordinates":[-4.628597,36.541359]}},{"type":"Feature","properties":{"name":"C.E.I.P. José Banús","data6":"CATERING EL CANTARO SL","direccion":"GUSTAVO ADOLFO BECQUER,34-40, 29660","empresa":2,"municipio":"Marbella"},"geometry":{"type":"Point","coordinates":[-4.975807,36.502418]}},{"type":"Feature","properties":{"name":"C.E.I.P. Vicente Aleixandre","data6":"MEDITERRANEA DE CATERING SL","direccion":"HAZA DEL RUBIO,S/N., 29740","empresa":1,"municipio":"Vélez-Málaga"},"geometry":{"type":"Point","coordinates":[-4.094612,36.744972]}},{"type":"Feature","properties":{"name":"C.E.I.P. Miguel Hernández","data6":"MEDITERRANEA DE CATERING SL","direccion":"BDA.ARQUILLO,S/N., 29670","empresa":1,"municipio":"Marbella"},"geometry":{"type":"Point","coordinates":[-4.995622,36.49014]}},{"type":"Feature","properties":{"name":"C.E.I.P. El Sexmo","data6":"MEDITERRANEA DE CATERING SL","direccion":"C/ GOYA, 39, 29580","empresa":1,"municipio":"Cártama"},"geometry":{"type":"Point","coordinates":[-4.593376,36.750205]}},{"type":"Feature","properties":{"name":"C.E.I.P. El Romeral","data6":"MEDITERRANEA DE CATERING SL","direccion":"BARRIO EL ROMERAL.CAMINO DE ALGARROBO, 29700","empresa":1,"municipio":"Vélez-Málaga"},"geometry":{"type":"Point","coordinates":[-4.095276,36.777479]}},{"type":"Feature","properties":{"name":"C.E.I.P. Los Morales","data6":"MEDITERRANEA DE CATERING SL","direccion":"ESC.ANTONIO NAVARRO TRUJILLO,35., 29190","empresa":1,"municipio":"Málaga"},"geometry":{"type":"Point","coordinates":[-4.475977,36.740097]}},{"type":"Feature","properties":{"name":"C.E.I.P. García Lorca","data6":"MEDITERRANEA DE CATERING SL","direccion":"C/ ALEMANIA 14, 29001","empresa":1,"municipio":"Málaga"},"geometry":{"type":"Point","coordinates":[-4.424819,36.713074]}},{"type":"Feature","properties":{"name":"C.E.I.P. Blas Infante","data6":"MEDITERRANEA DE CATERING SL","direccion":"ALCALDE JOSE HERNANDEZ N-4, 29014","empresa":1,"municipio":"Málaga"},"geometry":{"type":"Point","coordinates":[-4.419841,36.745845]}},{"type":"Feature","properties":{"name":"C.E.I.P. Antonio Machado","data6":"MEDITERRANEA DE CATERING SL","direccion":"C/ CORREGIDOR CARLOS GARAFA, 5, 29007","empresa":1,"municipio":"Málaga"},"geometry":{"type":"Point","coordinates":[-4.450945,36.718471]}},{"type":"Feature","properties":{"name":"C.E.I.P. Severo Ochoa","data6":"MEDITERRANEA DE CATERING SL","direccion":"PLAZA LUIS CERNUDA, 1, 29010","empresa":1,"municipio":"Málaga"},"geometry":{"type":"Point","coordinates":[-4.447392,36.731738]}},{"type":"Feature","properties":{"name":"C.E.I.P. Manuel de Falla","data6":"MEDITERRANEA DE CATERING SL","direccion":"AVDA.LA PALOMA. BOCANEGRA,S/N., 29003","empresa":1,"municipio":"Málaga"},"geometry":{"type":"Point","coordinates":[-4.445869,36.70189]}},{"type":"Feature","properties":{"name":"C.E.I.P. Los Ángeles","data6":"MEDITERRANEA DE CATERING SL","direccion":"C/ JOSEP PLA, S/N., 29011","empresa":1,"municipio":"Málaga"},"geometry":{"type":"Point","coordinates":[-4.434932,36.73245]}},{"type":"Feature","properties":{"name":"C.E.I.P. Al-Ándalus","data6":"MEDITERRANEA DE CATERING SL","direccion":"VEGA DEL MAR S/N-BDA. EL ARQUILLO, 29670","empresa":1,"municipio":"Marbella"},"geometry":{"type":"Point","coordinates":[-4.99554,36.488845]}},{"type":"Feature","properties":{"name":"C.E.I.P. Andalucía","data6":"MEDITERRANEA DE CATERING SL","direccion":"CALLE MANUEL REINA S/N, 29700","empresa":1,"municipio":"Vélez-Málaga"},"geometry":{"type":"Point","coordinates":[-4.104793,36.776254]}},{"type":"Feature","properties":{"name":"C.E.I.P. XIMÉNEZ DE GUZMÁN","data6":"MEDITERRANEA DE CATERING SL","direccion":"C/ MAR DEL PLATA, 12, 29100","empresa":1,"municipio":"Coín"},"geometry":{"type":"Point","coordinates":[-4.748999,36.666261]}},{"type":"Feature","properties":{"name":"C.E.I.P. Fuente Alegre","data6":"MEDITERRANEA DE CATERING SL","direccion":"CARRIL DE FUENTE ALEGRE,7., 29190","empresa":1,"municipio":"Málaga"},"geometry":{"type":"Point","coordinates":[-4.483408,36.744987]}},{"type":"Feature","properties":{"name":"E.I. Altabaca","data6":"MEDITERRANEA DE CATERING SL","direccion":"PL. HIPOLITO LANCHA,4., 29010","empresa":1,"municipio":"Málaga"},"geometry":{"type":"Point","coordinates":[-4.445146,36.723669]}},{"type":"Feature","properties":{"name":"C.E.I.P. Las Cañadas","data6":"MEDITERRANEA DE CATERING SL","direccion":"LAS CAÑADAS,S/N., 29650","empresa":1,"municipio":"Mijas"},"geometry":{"type":"Point","coordinates":[-4.632143,36.550301]}},{"type":"Feature","properties":{"name":"C.E.I.P. Cano-Cartamón","data6":"MEDITERRANEA DE CATERING SL","direccion":"CAMINO DEL CANO, S/N., 29580","empresa":1,"municipio":"Cártama"},"geometry":{"type":"Point","coordinates":[-4.613438,36.739509]}},{"type":"Feature","properties":{"name":"C.E.I.P. Huertas Viejas","data6":"MEDITERRANEA DE CATERING SL","direccion":"HUERTAS VIEJAS S/N, 29100","empresa":1,"municipio":"Coín"},"geometry":{"type":"Point","coordinates":[-4.752051,36.661403]}},{"type":"Feature","properties":{"name":"C.E.I.P. Jábega","data6":"MEDITERRANEA DE CATERING SL","direccion":"ALCALDE JOAQUIN ALONSO,19., 29003","empresa":1,"municipio":"Málaga"},"geometry":{"type":"Point","coordinates":[-4.451832,36.698438]}},{"type":"Feature","properties":{"name":"C.E.I.P. Jorge Guillén","data6":"MEDITERRANEA DE CATERING SL","direccion":"MONSEÑOR ROMERO, 2., 29120","empresa":1,"municipio":"Alhaurín el Grande"},"geometry":{"type":"Point","coordinates":[-4.698135,36.641878]}},{"type":"Feature","properties":{"name":"C.E.I.P. Cupiana","data6":"MEDITERRANEA DE CATERING SL","direccion":"PORTALES DE LA VICTORIA, 22, 29590","empresa":1,"municipio":"Málaga"},"geometry":{"type":"Point","coordinates":[-4.544415,36.706521]}},{"type":"Feature","properties":{"name":"C.E.I.P. Luis Cernuda","data6":"MEDITERRANEA DE CATERING SL","direccion":"C/ SAMANIEGO, 80, 29590","empresa":1,"municipio":"Málaga"},"geometry":{"type":"Point","coordinates":[-4.533521,36.726252]}},{"type":"Feature","properties":{"name":"C.E.I.P. Eduardo Ocón","data6":"MEDITERRANEA DE CATERING SL","direccion":"C/ TOMAS DE ECHEVARRIA, 4, 29002","empresa":1,"municipio":"Málaga"},"geometry":{"type":"Point","coordinates":[-4.435364,36.703841]}},{"type":"Feature","properties":{"name":"C.E.I.P. Flor de Azahar","data6":"MEDITERRANEA DE CATERING SL","direccion":"DESCONOCIDA, 29580","empresa":1,"municipio":"Cártama"},"geometry":{"type":"Point","coordinates":[-4.60713,36.73966]}},{"type":"Feature","properties":{"name":"E.I. El Panal","data6":"MEDITERRANEA DE CATERING SL","direccion":"DESCONOCIDA, 29630","empresa":1,"municipio":"Benalmádena"},"geometry":{"type":"Point","coordinates":[-4.536724,36.600972]}},{"type":"Feature","properties":{"name":"C.E.I.P. Guadalhorce","data6":"MEDITERRANEA DE CATERING SL","direccion":"PASAJE DE JEREZ,S/N., 29560","empresa":1,"municipio":"Pizarra"},"geometry":{"type":"Point","coordinates":[-4.708726,36.7693]}},{"type":"Feature","properties":{"name":"C.E.I.P. Benyamina","data6":"MEDITERRANEA DE CATERING SL","direccion":"RONDA ALTA DE BENYAMINA,58., 29620","empresa":1,"municipio":"Torremolinos"},"geometry":{"type":"Point","coordinates":[-4.495882,36.634628]}},{"type":"Feature","properties":{"name":"C.E.I.P. El Albero","data6":"MEDITERRANEA DE CATERING SL","direccion":"AVDA. DE LOS LIRIOS, S/N, 29650","empresa":1,"municipio":"Mijas"},"geometry":{"type":"Point","coordinates":[-4.639128,36.539448]}},{"type":"Feature","properties":{"name":"C.E.I.P. Juan Herrera Alcausa","data6":"MEDITERRANEA DE CATERING SL","direccion":"CLAVEL,S/N., 29700","empresa":1,"municipio":"Vélez-Málaga"},"geometry":{"type":"Point","coordinates":[-4.097447,36.77483]}},{"type":"Feature","properties":{"name":"C.E.I.P. Gandhi","data6":"MEDITERRANEA DE CATERING SL","direccion":"C/ JUAN DE ORTEGA, 13, 29190","empresa":1,"municipio":"Málaga"},"geometry":{"type":"Point","coordinates":[-4.473328,36.729797]}},{"type":"Feature","properties":{"name":"C.E.I.P. José Moreno Villa","data6":"MEDITERRANEA DE CATERING SL","direccion":"GODINO,11., 29009","empresa":1,"municipio":"Málaga"},"geometry":{"type":"Point","coordinates":[-4.429774,36.731565]}},{"type":"Feature","properties":{"name":"C.E.I.P. Colmenarejo","data6":"MEDITERRANEA DE CATERING SL","direccion":"C/. PRINCIPAL, S/N, 29590","empresa":1,"municipio":"Málaga"},"geometry":{"type":"Point","coordinates":[-4.532701,36.732637]}},{"type":"Feature","properties":{"name":"C.E.I.P. Los Campanales","data6":"MEDITERRANEA DE CATERING SL","direccion":"CAMINO DEL ALBERO S/N, 29650","empresa":1,"municipio":"Mijas"},"geometry":{"type":"Point","coordinates":[-4.637924,36.546454]}},{"type":"Feature","properties":{"name":"C.E.I.P. La Paloma","data6":"MEDITERRANEA DE CATERING SL","direccion":"AVDA.DE LA PAZ,S/N., 29630","empresa":1,"municipio":"Benalmádena"},"geometry":{"type":"Point","coordinates":[-4.53305,36.595485]}},{"type":"Feature","properties":{"name":"C.E.I.P. Fuente Nueva","data6":"MEDITERRANEA DE CATERING SL","direccion":"C/ AMOR, 2, 29670","empresa":1,"municipio":"Marbella"},"geometry":{"type":"Point","coordinates":[-4.986698,36.489606]}},{"type":"Feature","properties":{"name":"C.E.I.P. Juan Martín Pinzón","data6":"MEDITERRANEA DE CATERING SL","direccion":"TOLOX,4., 29400","empresa":1,"municipio":"Ronda"},"geometry":{"type":"Point","coordinates":[-5.153884,36.748029]}},{"type":"Feature","properties":{"name":"C.E.I.P. San Juan","data6":"MEDITERRANEA DE CATERING SL","direccion":"GRANADA, 15, 29130","empresa":1,"municipio":"Alhaurín de la Torre"},"geometry":{"type":"Point","coordinates":[-4.566789,36.663177]}},{"type":"Feature","properties":{"name":"C.E.I.P. Francisco Quevedo","data6":"MEDITERRANEA DE CATERING SL","direccion":"TIZIANO,S/N.URB.BRILLANTE., 29590","empresa":1,"municipio":"Málaga"},"geometry":{"type":"Point","coordinates":[-4.53901,36.72326]}},{"type":"Feature","properties":{"name":"E.I. Arco Iris","data6":"MEDITERRANEA DE CATERING SL","direccion":"CERVANTES S/N, 29580","empresa":1,"municipio":"Cártama"},"geometry":{"type":"Point","coordinates":[-4.607374,36.734527]}},{"type":"Feature","properties":{"name":"C.E.I.P. Félix Plaza Ramos","data6":"MEDITERRANEA DE CATERING SL","direccion":"FINCA LA GASEOSA,S/N., 29120","empresa":1,"municipio":"Alhaurín el Grande"},"geometry":{"type":"Point","coordinates":[-4.680115,36.647013]}},{"type":"Feature","properties":{"name":"C.E.I.P. Zambrana","data6":"MEDITERRANEA DE CATERING SL","direccion":"BDA. ERMITA DEL CERRO, 29130","empresa":1,"municipio":"Alhaurín de la Torre"},"geometry":{"type":"Point","coordinates":[-4.554243,36.66274]}},{"type":"Feature","properties":{"name":"I.E.S. Campanillas","data6":"MEDITERRANEA DE CATERING SL","direccion":"BDA. CAMPANILLAS (URB. EL ROQUERO), 29590","empresa":1,"municipio":"Málaga"},"geometry":{"type":"Point","coordinates":[-4.550891,36.726646]}},{"type":"Feature","properties":{"name":"I.E.S. Profesor Gonzalo Huesa","data6":"MEDITERRANEA DE CATERING SL","direccion":"SAN VICENTE DE PAUL, S/N, 29400","empresa":1,"municipio":"Ronda"},"geometry":{"type":"Point","coordinates":[-5.160444,36.742934]}},{"type":"Feature","properties":{"name":"I.E.S. Bezmiliana","data6":"MEDITERRANEA DE CATERING SL","direccion":"URBANIZACION GRAN SOL, S/N, 29730","empresa":1,"municipio":"Rincón de la Victoria"},"geometry":{"type":"Point","coordinates":[-4.280654,36.719783]}},{"type":"Feature","properties":{"name":"I.E.S. Miraya del Mar","data6":"MEDITERRANEA DE CATERING SL","direccion":"URB. JARDINES DEL ROCIO, 29740","empresa":1,"municipio":"Vélez-Málaga"},"geometry":{"type":"Point","coordinates":[-4.09102,36.746471]}},{"type":"Feature","properties":{"name":"I.E.S. Almenara","data6":"MEDITERRANEA DE CATERING SL","direccion":"C/ CAMINO HUERTO CARRION, S/N., 29700","empresa":1,"municipio":"Vélez-Málaga"},"geometry":{"type":"Point","coordinates":[-4.111011,36.785633]}},{"type":"Feature","properties":{"name":"I.E.S. Serranía","data6":"MEDITERRANEA DE CATERING SL","direccion":"C/ SEVERO OCHOA, S/N, 29567","empresa":1,"municipio":"Alozaina"},"geometry":{"type":"Point","coordinates":[-4.862335,36.730193]}},{"type":"Feature","properties":{"name":"I.E.S. Torre Atalaya","data6":"MEDITERRANEA DE CATERING SL","direccion":"AVDA. NAVARRO LEDESMA Nº 170 (URB.TORRE, 29010","empresa":1,"municipio":"Málaga"},"geometry":{"type":"Point","coordinates":[-4.481346,36.725056]}},{"type":"Feature","properties":{"name":"I.E.S. Poetas Andaluces","data6":"MEDITERRANEA DE CATERING SL","direccion":"AVDA. MEDINA AZAHARA S/N, 29631","empresa":1,"municipio":"Benalmádena"},"geometry":{"type":"Point","coordinates":[-4.528754,36.603852]}},{"type":"Feature","properties":{"name":"I.E.S. Salvador Rueda","data6":"MEDITERRANEA DE CATERING SL","direccion":"C/ HERMANOS LOPEZ CAMPOS, 14, 29700","empresa":1,"municipio":"Vélez-Málaga"},"geometry":{"type":"Point","coordinates":[-4.101413,36.770388]}},{"type":"Feature","properties":{"name":"C.E.PR. Pablo Ruiz Picasso","data6":"MEDITERRANEA DE CATERING SL","direccion":"C/ HONDURAS,1, 29007","empresa":1,"municipio":"Málaga"},"geometry":{"type":"Point","coordinates":[-4.434554,36.720249]}},{"type":"Feature","properties":{"name":"C.E.I.P. Luis de Góngora","data6":"MEDITERRANEA DE CATERING SL","direccion":"GONGORA, 11., 29002","empresa":1,"municipio":"Málaga"},"geometry":{"type":"Point","coordinates":[-4.430228,36.709062]}},{"type":"Feature","properties":{"name":"I.E.S. Sagrado Corazón","data6":"MEDITERRANEA DE CATERING SL","direccion":"C/OBISPO ANGEL HERRERA ORIA, 28, 29007","empresa":1,"municipio":"Málaga"},"geometry":{"type":"Point","coordinates":[-4.440953,36.718934]}},{"type":"Feature","properties":{"name":"I.E.S. El Palo","data6":"MEDITERRANEA DE CATERING SL","direccion":"CAMINO VIEJO DE VELEZ, S/N., 29018","empresa":1,"municipio":"Málaga"},"geometry":{"type":"Point","coordinates":[-4.344759,36.722819]}},{"type":"Feature","properties":{"name":"C.E.PR. San José de Calasanz","data6":"MEDITERRANEA DE CATERING SL","direccion":"C/ HILERA, S/N, 29007","empresa":1,"municipio":"Málaga"},"geometry":{"type":"Point","coordinates":[-4.432222,36.719569]}},{"type":"Feature","properties":{"name":"C.E.I.P. Maestra Virginia Gaitán","data6":"MEDITERRANEA DE CATERING SL","direccion":"C/ FRANCISCO DE JORGE GALLARDO Nº 1 Y, 29620","empresa":1,"municipio":"Torremolinos"},"geometry":{"type":"Point","coordinates":[-4.515821,36.60731]}},{"type":"Feature","properties":{"name":"C.E.I.P. Ntra. Sra. de Monsalud","data6":"MEDITERRANEA DE CATERING SL","direccion":"GARCIA LORCA,S/N., 29194","empresa":1,"municipio":"Alfarnate"},"geometry":{"type":"Point","coordinates":[-4.258946,36.991888]}},{"type":"Feature","properties":{"name":"C.E.I.P. Cándido Lara","data6":"MEDITERRANEA DE CATERING SL","direccion":"SAN ANTONIO, 63., 29754","empresa":1,"municipio":"Cómpeta"},"geometry":{"type":"Point","coordinates":[-3.976792,36.834443]}},{"type":"Feature","properties":{"name":"C.E.I.P. Carmen Arévalo","data6":"MEDITERRANEA DE CATERING SL","direccion":"LAS FLORES (VILLAFRANCO DE GUADALORCE), 29120","empresa":1,"municipio":"Alhaurín el Grande"},"geometry":{"type":"Point","coordinates":[-4.698656,36.701133]}},{"type":"Feature","properties":{"name":"C.E.I.P. Maestro José Durán","data6":"MEDITERRANEA DE CATERING SL","direccion":"CORREDERA S/N, 29330","empresa":1,"municipio":"Almargen"},"geometry":{"type":"Point","coordinates":[-5.021518,37.003732]}},{"type":"Feature","properties":{"name":"C.E.I.P. Padre Miguel Sánchez","data6":"MEDITERRANEA DE CATERING SL","direccion":"REHOYADA S/N, 29150","empresa":1,"municipio":"Almogía"},"geometry":{"type":"Point","coordinates":[-4.539255,36.823691]}},{"type":"Feature","properties":{"name":"C.E.I.P. Guadalhorce","data6":"MEDITERRANEA DE CATERING SL","direccion":"GINER DE LOS RIOS, 2., 29510","empresa":1,"municipio":"Álora"},"geometry":{"type":"Point","coordinates":[-4.696121,36.815406]}},{"type":"Feature","properties":{"name":"C.E.I.P. Arquitecto Sánchez Sepúlveda","data6":"MEDITERRANEA DE CATERING SL","direccion":"PASEO CALVARIO 3, 29567","empresa":1,"municipio":"Alozaina"},"geometry":{"type":"Point","coordinates":[-4.85956,36.727572]}},{"type":"Feature","properties":{"name":"C.E.I.P. León Motta","data6":"MEDITERRANEA DE CATERING SL","direccion":"AVDA.ESTACION, S/N., 29200","empresa":1,"municipio":"Antequera"},"geometry":{"type":"Point","coordinates":[-4.560964,37.026346]}},{"type":"Feature","properties":{"name":"C.E.I.P. Infante Don Fernando","data6":"MEDITERRANEA DE CATERING SL","direccion":"RODRIGO DE NARVAEZ S/N, 29200","empresa":1,"municipio":"Antequera"},"geometry":{"type":"Point","coordinates":[-4.566532,37.020197]}},{"type":"Feature","properties":{"name":"C.E.I.P. La Vera Cruz","data6":"MEDITERRANEA DE CATERING SL","direccion":"CERRO DE LA CRUZ,S/N., 29200","empresa":1,"municipio":"Antequera"},"geometry":{"type":"Point","coordinates":[-4.554964,37.023793]}},{"type":"Feature","properties":{"name":"C.E.I.P. José Núñez León","data6":"MEDITERRANEA DE CATERING SL","direccion":"FRAY JUAN, 30, 29550","empresa":1,"municipio":"Ardales"},"geometry":{"type":"Point","coordinates":[-4.844861,36.879709]}},{"type":"Feature","properties":{"name":"C.E.I.P. Virgen de la Aurora","data6":"MEDITERRANEA DE CATERING SL","direccion":"AVDA DE ANDALUCIA, 3, 29350","empresa":1,"municipio":"Arriate"},"geometry":{"type":"Point","coordinates":[-5.139192,36.795278]}},{"type":"Feature","properties":{"name":"C.E.I.P. El Tomillar","data6":"MEDITERRANEA DE CATERING SL","direccion":"AVDA.CONSTITUCION,30, 29631","empresa":1,"municipio":"Benalmádena"},"geometry":{"type":"Point","coordinates":[-4.527479,36.600655]}},{"type":"Feature","properties":{"name":"C.E.I.P. Eduardo Ocón Rivas","data6":"MEDITERRANEA DE CATERING SL","direccion":"ZARZUELA S/N, 29719","empresa":1,"municipio":"Benamocarra"},"geometry":{"type":"Point","coordinates":[-4.160429,36.791581]}},{"type":"Feature","properties":{"name":"C.E.I.P. San Agustín","data6":"MEDITERRANEA DE CATERING SL","direccion":"ERILLAS, 4, 29420","empresa":1,"municipio":"El Burgo"},"geometry":{"type":"Point","coordinates":[-4.94899,36.790194]}},{"type":"Feature","properties":{"name":"C.E.I.P. Manzano Jiménez","data6":"MEDITERRANEA DE CATERING SL","direccion":"AVDA.SANTA MARIA DEL REPOSO ;9, 29320","empresa":1,"municipio":"Campillos"},"geometry":{"type":"Point","coordinates":[-4.860657,37.045339]}},{"type":"Feature","properties":{"name":"C.E.PR. Pablo Neruda","data6":"MEDITERRANEA DE CATERING SL","direccion":"BDA. LOS CARDIALES S/N, 29580","empresa":1,"municipio":"Cártama"},"geometry":{"type":"Point","coordinates":[-4.610479,36.733794]}},{"type":"Feature","properties":{"name":"C.E.I.P. Blas Infante","data6":"MEDITERRANEA DE CATERING SL","direccion":"PUERTO DE LA CRUZ S/N, 29690","empresa":1,"municipio":"Casares"},"geometry":{"type":"Point","coordinates":[-5.269221,36.443247]}},{"type":"Feature","properties":{"name":"C.E.I.P. Lope de Vega","data6":"MEDITERRANEA DE CATERING SL","direccion":"AZAHAR,35., 29100","empresa":1,"municipio":"Coín"},"geometry":{"type":"Point","coordinates":[-4.760716,36.665505]}},{"type":"Feature","properties":{"name":"C.E.I.P. Ciudad de Belda","data6":"MEDITERRANEA DE CATERING SL","direccion":"GRANADA, 64., 29210","empresa":1,"municipio":"Cuevas de San Marcos"},"geometry":{"type":"Point","coordinates":[-4.409175,37.267868]}},{"type":"Feature","properties":{"name":"C.E.I.P. Los Boliches","data6":"MEDITERRANEA DE CATERING SL","direccion":"SANTA GEMA Y STA.CATALINA S/N., 29640","empresa":1,"municipio":"Fuengirola"},"geometry":{"type":"Point","coordinates":[-4.618922,36.554728]}},{"type":"Feature","properties":{"name":"C.E.I.P. Los Almendros","data6":"MEDITERRANEA DE CATERING SL","direccion":"AVDA.ANDALUCIA,73., 29108","empresa":1,"municipio":"Guaro"},"geometry":{"type":"Point","coordinates":[-4.836247,36.65863]}},{"type":"Feature","properties":{"name":"C.E.I.P. Los Prados","data6":"MEDITERRANEA DE CATERING SL","direccion":"C/JOSELITO DE MALAGA S/N BDA.LOS PRADO, 29006","empresa":1,"municipio":"Málaga"},"geometry":{"type":"Point","coordinates":[-4.475636,36.699488]}},{"type":"Feature","properties":{"name":"C.E.I.P. Ciudad de Jaén","data6":"MEDITERRANEA DE CATERING SL","direccion":"TORREMOLINOS,65., 29140","empresa":1,"municipio":"Málaga"},"geometry":{"type":"Point","coordinates":[-4.503661,36.663307]}},{"type":"Feature","properties":{"name":"C.E.I.P. Manuel Fernández","data6":"MEDITERRANEA DE CATERING SL","direccion":"LA CAROLINA S/N, 29140","empresa":1,"municipio":"Málaga"},"geometry":{"type":"Point","coordinates":[-4.507279,36.673728]}},{"type":"Feature","properties":{"name":"C.E.I.P. Constitución 1978","data6":"MEDITERRANEA DE CATERING SL","direccion":"C/ FRANCISCO BALLESTEROS, 2 Y 4, 29003","empresa":1,"municipio":"Málaga"},"geometry":{"type":"Point","coordinates":[-4.441201,36.699995]}},{"type":"Feature","properties":{"name":"C.E.I.P. Prácticas N-1","data6":"MEDITERRANEA DE CATERING SL","direccion":"RODRIGUEZ RUBI, 1, 29008","empresa":1,"municipio":"Málaga"},"geometry":{"type":"Point","coordinates":[-4.422178,36.721537]}},{"type":"Feature","properties":{"name":"C.E.I.P. Miguel de Cervantes","data6":"MEDITERRANEA DE CATERING SL","direccion":"LOPEZ DOMINGUEZ,6., 29013","empresa":1,"municipio":"Málaga"},"geometry":{"type":"Point","coordinates":[-4.423897,36.730097]}},{"type":"Feature","properties":{"name":"C.E.I.P. Arturo Reyes","data6":"MEDITERRANEA DE CATERING SL","direccion":"C/CORREGIDOR PEDRO DE ZAPATA, S/N, 29006","empresa":1,"municipio":"Málaga"},"geometry":{"type":"Point","coordinates":[-4.452236,36.712145]}},{"type":"Feature","properties":{"name":"C.E.I.P. Ramón Simonet","data6":"MEDITERRANEA DE CATERING SL","direccion":"ENRIQUE BELTRAN,2., 29010","empresa":1,"municipio":"Málaga"},"geometry":{"type":"Point","coordinates":[-4.442483,36.724163]}},{"type":"Feature","properties":{"name":"C.E.I.P. Clara Campoamor","data6":"MEDITERRANEA DE CATERING SL","direccion":"AVDA. SOLIDARIDAD, S/N (URB. TORRESOL), 29130","empresa":1,"municipio":"Alhaurín de la Torre"},"geometry":{"type":"Point","coordinates":[-4.543311,36.656801]}},{"type":"Feature","properties":{"name":"C.E.I.P. Doctor Fléming","data6":"MEDITERRANEA DE CATERING SL","direccion":"PASAJE HORACIO LENGO, 3, 29006","empresa":1,"municipio":"Málaga"},"geometry":{"type":"Point","coordinates":[-4.44029,36.71447]}},{"type":"Feature","properties":{"name":"C.E.I.P. Bergamín","data6":"MEDITERRANEA DE CATERING SL","direccion":"PELAYO,16., 29009","empresa":1,"municipio":"Málaga"},"geometry":{"type":"Point","coordinates":[-4.432237,36.723082]}},{"type":"Feature","properties":{"name":"C.E.I.P. Manuel Altolaguirre","data6":"MEDITERRANEA DE CATERING SL","direccion":"ARLANZA,6., 29011","empresa":1,"municipio":"Málaga"},"geometry":{"type":"Point","coordinates":[-4.431517,36.735988]}},{"type":"Feature","properties":{"name":"C.E.I.P. María Zambrano","data6":"MEDITERRANEA DE CATERING SL","direccion":"MARIA ZAMBRANO, 1 ZONA CORTIJO ALTO, 29006","empresa":1,"municipio":"Málaga"},"geometry":{"type":"Point","coordinates":[-4.466081,36.710107]}},{"type":"Feature","properties":{"name":"C.E.I.P. La Paz","data6":"MEDITERRANEA DE CATERING SL","direccion":"C/ HORACIO LENGO, 8, 29620","empresa":1,"municipio":"Torremolinos"},"geometry":{"type":"Point","coordinates":[-4.507183,36.622555]}},{"type":"Feature","properties":{"name":"C.E.I.P. Ciudad Palma de Mallorca","data6":"MEDITERRANEA DE CATERING SL","direccion":"PERIODISTA FEDERICO ALBA,23., 29620","empresa":1,"municipio":"Torremolinos"},"geometry":{"type":"Point","coordinates":[-4.510266,36.617848]}},{"type":"Feature","properties":{"name":"C.E.I.P. Ntra. Sra. del Carmen","data6":"MEDITERRANEA DE CATERING SL","direccion":"ESCUELAS 6-BARRIO DEL CASTILLO, 29600","empresa":1,"municipio":"Marbella"},"geometry":{"type":"Point","coordinates":[-4.884313,36.511144]}},{"type":"Feature","properties":{"name":"C.E.I.P. Hermanos Gil Muñiz","data6":"MEDITERRANEA DE CATERING SL","direccion":"SAN FRANCISCO 4-BDA. LEGANITOS, 29600","empresa":1,"municipio":"Marbella"},"geometry":{"type":"Point","coordinates":[-4.885504,36.513457]}},{"type":"Feature","properties":{"name":"C.E.I.P. Profesor Tierno Galván","data6":"MEDITERRANEA DE CATERING SL","direccion":"MALVALOCA S/N, 29730","empresa":1,"municipio":"Rincón de la Victoria"},"geometry":{"type":"Point","coordinates":[-4.28049,36.720994]}},{"type":"Feature","properties":{"name":"C.E.I.P. Ntra. Sra. de Gracia","data6":"MEDITERRANEA DE CATERING SL","direccion":"UNIVERSIDAD DE MALAGA S/N, 29180","empresa":1,"municipio":"Riogordo"},"geometry":{"type":"Point","coordinates":[-4.292663,36.918682]}},{"type":"Feature","properties":{"name":"C.E.I.P. Parque Clavero","data6":"MEDITERRANEA DE CATERING SL","direccion":"C/ FEDERICO FELLINI, S/N, 29016","empresa":1,"municipio":"Málaga"},"geometry":{"type":"Point","coordinates":[-4.392628,36.728041]}},{"type":"Feature","properties":{"name":"C.E.I.P. María Teresa León","data6":"MEDITERRANEA DE CATERING SL","direccion":"CAMINO DE LA CASETA S/N, 29670","empresa":1,"municipio":"Marbella"},"geometry":{"type":"Point","coordinates":[-4.983692,36.485226]}},{"type":"Feature","properties":{"name":"I.E.S. Concha Méndez Cuesta","data6":"MEDITERRANEA DE CATERING SL","direccion":"JORDANO BRUNO,10, 29620","empresa":1,"municipio":"Torremolinos"},"geometry":{"type":"Point","coordinates":[-4.523214,36.605821]}},{"type":"Feature","properties":{"name":"C.E.I.P. Mar Argentea","data6":"MEDITERRANEA DE CATERING SL","direccion":"C/ PINILLO NORTE, 29620","empresa":1,"municipio":"Torremolinos"},"geometry":{"type":"Point","coordinates":[-4.520345,36.608367]}},{"type":"Feature","properties":{"name":"C.E.I.P. Juan Paniagua","data6":"MEDITERRANEA DE CATERING SL","direccion":"CARRETERA ALMAYATE-CADIZ, S/N., 29749","empresa":1,"municipio":"Vélez-Málaga"},"geometry":{"type":"Point","coordinates":[-4.131868,36.731143]}},{"type":"Feature","properties":{"name":"C.E.I.P. Custodio Puga","data6":"MEDITERRANEA DE CATERING SL","direccion":"C/ MAESTRO GENARO RINCON, S/N., 29740","empresa":1,"municipio":"Vélez-Málaga"},"geometry":{"type":"Point","coordinates":[-4.0973,36.740725]}},{"type":"Feature","properties":{"name":"C.E.I.P. Blas Infante","data6":"MEDITERRANEA DE CATERING SL","direccion":"MIGUEL DE CERVANTES,8., 29740","empresa":1,"municipio":"Vélez-Málaga"},"geometry":{"type":"Point","coordinates":[-4.092193,36.741745]}},{"type":"Feature","properties":{"name":"C.E.I.P. Augusto Santiago Bellido","data6":"MEDITERRANEA DE CATERING SL","direccion":"REÑIDERO, 9., 29700","empresa":1,"municipio":"Vélez-Málaga"},"geometry":{"type":"Point","coordinates":[-4.107058,36.783299]}},{"type":"Feature","properties":{"name":"I.E.S. Galileo","data6":"MEDITERRANEA DE CATERING SL","direccion":"C/ AMADEO VIVES 10, 29130","empresa":1,"municipio":"Alhaurín de la Torre"},"geometry":{"type":"Point","coordinates":[-4.541396,36.663959]}},{"type":"Feature","properties":{"name":"C.E.I.P. Sierra de las Nieves","data6":"MEDITERRANEA DE CATERING SL","direccion":"ERMITA,14., 29410","empresa":1,"municipio":"Yunquera"},"geometry":{"type":"Point","coordinates":[-4.920036,36.7349]}},{"type":"Feature","properties":{"name":"C.E.I.P. San Faustino","data6":"MEDITERRANEA DE CATERING SL","direccion":"CAMPO DE LA IGLESIA S/N, 29790","empresa":1,"municipio":"Vélez-Málaga"},"geometry":{"type":"Point","coordinates":[-4.196761,36.718522]}},{"type":"Feature","properties":{"name":"C.E.I.P. San Sebastián","data6":"MEDITERRANEA DE CATERING SL","direccion":"JUAN CARLOS I, S/N., 29130","empresa":1,"municipio":"Alhaurín de la Torre"},"geometry":{"type":"Point","coordinates":[-4.569097,36.661056]}},{"type":"Feature","properties":{"name":"C.P.R. Almijara","data6":"MEDITERRANEA DE CATERING SL","direccion":"C/ NUEVA, 6, 29752","empresa":1,"municipio":"Sayalonga"},"geometry":{"type":"Point","coordinates":[-4.01417,36.797621]}},{"type":"Feature","properties":{"name":"C.E.I.P. Carazony","data6":"MEDITERRANEA DE CATERING SL","direccion":"MAR DEL PLATA 12,URB.BUENOS AIRES, 29100","empresa":1,"municipio":"Coín"},"geometry":{"type":"Point","coordinates":[-4.763011,36.659204]}},{"type":"Feature","properties":{"name":"I.E.S. Benalmádena","data6":"MEDITERRANEA DE CATERING SL","direccion":"AVDA. CIBELES, Nº 6, 29000","empresa":1,"municipio":"Benalmádena"},"geometry":{"type":"Point","coordinates":[-4.556401,36.59894]}},{"type":"Feature","properties":{"name":"C.E.I.P. El Hacho","data6":"MEDITERRANEA DE CATERING SL","direccion":"SUSPIROS,S/N., 29500","empresa":1,"municipio":"Álora"},"geometry":{"type":"Point","coordinates":[-4.707921,36.827811]}},{"type":"Feature","properties":{"name":"C.E.I.P. Los Almendros","data6":"CATERING EL CANTARO SL","direccion":"BDA. SECADERO S/N CTRA. SAN MARTIN DEL, 29690","empresa":2,"municipio":"Casares"},"geometry":{"type":"Point","coordinates":[-5.314319,36.334375]}},{"type":"Feature","properties":{"name":"C.E.I.P. Federico García Lorca","data6":"CATERING EL CANTARO SL","direccion":"SAN ANTONIO,26., 29600","empresa":2,"municipio":"Marbella"},"geometry":{"type":"Point","coordinates":[-4.881914,36.513682]}},{"type":"Feature","properties":{"name":"I.E.S. Emilio Prados","data6":"CATERING EL CANTARO SL","direccion":"C/ LUIS BARAHONA DE SOTO, 16, 29004","empresa":2,"municipio":"Málaga"},"geometry":{"type":"Point","coordinates":[-4.446385,36.692154]}},{"type":"Feature","properties":{"name":"I.E.S. Portada Alta","data6":"CATERING EL CANTARO SL","direccion":"C/ COMPETA S/N, 29007","empresa":2,"municipio":"Málaga"},"geometry":{"type":"Point","coordinates":[-4.453725,36.719111]}},{"type":"Feature","properties":{"name":"C.E.I.P. María Auxiliadora","data6":"CATERING EL CANTARO SL","direccion":"ALAMEDA, 1, 29551","empresa":2,"municipio":"Carratraca"},"geometry":{"type":"Point","coordinates":[-4.820757,36.850602]}},{"type":"Feature","properties":{"name":"C.E.I.P. María Espinosa","data6":"CATERING EL CANTARO SL","direccion":"AVD VIRGEN DE LA CABEZA S/N, 29680","empresa":2,"municipio":"Estepona"},"geometry":{"type":"Point","coordinates":[-5.14337,36.43344]}},{"type":"Feature","properties":{"name":"C.E.I.P. Salvador Rueda","data6":"CATERING EL CANTARO SL","direccion":"DONATO JIMENEZ,8., 29014","empresa":2,"municipio":"Málaga"},"geometry":{"type":"Point","coordinates":[-4.422043,36.739394]}},{"type":"Feature","properties":{"name":"C.E.I.P. Pablo Ruiz Picasso","data6":"CATERING EL CANTARO SL","direccion":"ALBAICIN,S/N., 29120","empresa":2,"municipio":"Alhaurín el Grande"},"geometry":{"type":"Point","coordinates":[-4.687244,36.640958]}},{"type":"Feature","properties":{"name":"C.E.I.P. Camino de San Rafael","data6":"CATERING EL CANTARO SL","direccion":"GUERRITA,3., 29006","empresa":2,"municipio":"Málaga"},"geometry":{"type":"Point","coordinates":[-4.445247,36.708835]}},{"type":"Feature","properties":{"name":"C.E.I.P. Federico García Lorca","data6":"CATERING EL CANTARO SL","direccion":"BDA.PABLO PICASSO,1., 29680","empresa":2,"municipio":"Estepona"},"geometry":{"type":"Point","coordinates":[-5.139584,36.429783]}},{"type":"Feature","properties":{"name":"C.E.I.P. Andalucía","data6":"CATERING EL CANTARO SL","direccion":"MALLORCA,7., 29640","empresa":2,"municipio":"Fuengirola"},"geometry":{"type":"Point","coordinates":[-4.629089,36.545844]}},{"type":"Feature","properties":{"name":"C.E.I.P. Antonio Checa Martínez","data6":"CATERING EL CANTARO SL","direccion":"RODRIGO VIVAR, 35., 29740","empresa":2,"municipio":"Vélez-Málaga"},"geometry":{"type":"Point","coordinates":[-4.087207,36.744067]}},{"type":"Feature","properties":{"name":"C.E.I.P. Acapulco","data6":"CATERING EL CANTARO SL","direccion":"ANT. CHENEL \"ANTOÑETE\" (LOS BOLICHES, 29640","empresa":2,"municipio":"Fuengirola"},"geometry":{"type":"Point","coordinates":[-4.621662,36.551594]}},{"type":"Feature","properties":{"name":"C.E.I.P. El Tejar","data6":"CATERING EL CANTARO SL","direccion":"C/ RODRIGO DE TRIANA, S/N., 29640","empresa":2,"municipio":"Fuengirola"},"geometry":{"type":"Point","coordinates":[-4.625391,36.54823]}},{"type":"Feature","properties":{"name":"C.E.I.P. Paulo Freire","data6":"CATERING EL CANTARO SL","direccion":"EDUARDO DE PALACIO 8, 29004","empresa":2,"municipio":"Málaga"},"geometry":{"type":"Point","coordinates":[-4.446524,36.695498]}},{"type":"Feature","properties":{"name":"C.E.I.P. Fuente del Badén","data6":"CATERING EL CANTARO SL","direccion":"BARRIADA DE LOS POETAS S/N, 29780","empresa":2,"municipio":"Nerja"},"geometry":{"type":"Point","coordinates":[-3.872051,36.762055]}},{"type":"Feature","properties":{"name":"C.E.I.P. Miguel de Cervantes","data6":"CATERING EL CANTARO SL","direccion":"FRAY AGUSTIN DE SAN PASCUAL,S/N., 29600","empresa":2,"municipio":"Marbella"},"geometry":{"type":"Point","coordinates":[-4.87685,36.515443]}},{"type":"Feature","properties":{"name":"C.E.I.P. Salvador González Cantos","data6":"CATERING EL CANTARO SL","direccion":"CAMPILLOS,S/N., 29120","empresa":2,"municipio":"Alhaurín el Grande"},"geometry":{"type":"Point","coordinates":[-4.685239,36.640515]}},{"type":"Feature","properties":{"name":"C.E.I.P. Antonio Machado","data6":"CATERING EL CANTARO SL","direccion":"AVDA. DE ANDALUCÍA, Nº 110, 29680","empresa":2,"municipio":"Estepona"},"geometry":{"type":"Point","coordinates":[-5.142735,36.431653]}},{"type":"Feature","properties":{"name":"C.E.I.P. Valdeolletas","data6":"CATERING EL CANTARO SL","direccion":"CRTA.CIRCUNVALACION,S/N., 29600","empresa":2,"municipio":"Marbella"},"geometry":{"type":"Point","coordinates":[-4.893319,36.517195]}},{"type":"Feature","properties":{"name":"E.I. Arco Iris","data6":"CATERING EL CANTARO SL","direccion":"CERRILLO S/N, 29500","empresa":2,"municipio":"Álora"},"geometry":{"type":"Point","coordinates":[-4.704868,36.822831]}},{"type":"Feature","properties":{"name":"C.E.I.P. Torrijos","data6":"CATERING EL CANTARO SL","direccion":"ESCUELAS S/N. (BARRIADA TORRE DE LA ALQUERÍA), 29650","empresa":2,"municipio":"Alhaurín de la Torre"},"geometry":{"type":"Point","coordinates":[-4.599094,36.689798]}},{"type":"Feature","properties":{"name":"C.E.I.P. Las Maravillas","data6":"CATERING EL CANTARO SL","direccion":"SAN MIGUEL S/N, 29787","empresa":2,"municipio":"Nerja"},"geometry":{"type":"Point","coordinates":[-3.843346,36.759536]}},{"type":"Feature","properties":{"name":"I.E.S. Mare Nostrum","data6":"CATERING EL CANTARO SL","direccion":"C/ VILLANUEVA DE ALGAIDAS,9, 29004","empresa":2,"municipio":"Málaga"},"geometry":{"type":"Point","coordinates":[-4.455118,36.686395]}},{"type":"Feature","properties":{"name":"C.E.I.P. Miguel Hernández","data6":"CATERING EL CANTARO SL","direccion":"CUESTA DE CAMPANILLAS, BDA. LOS NUÑEZ, 29150","empresa":2,"municipio":"Almogía"},"geometry":{"type":"Point","coordinates":[-4.514797,36.781645]}},{"type":"Feature","properties":{"name":"C.E.I.P. Nueva Nerja","data6":"CATERING EL CANTARO SL","direccion":"C/SAN ANTONIO ,2 (LA MAQUINILLA), 29780","empresa":2,"municipio":"Nerja"},"geometry":{"type":"Point","coordinates":[-3.877272,36.751442]}},{"type":"Feature","properties":{"name":"I.E.S. Eduardo Janeiro","data6":"CATERING EL CANTARO SL","direccion":"C/ ENEBRO, S/N, 29640","empresa":2,"municipio":"Fuengirola"},"geometry":{"type":"Point","coordinates":[-4.619966,36.562813]}},{"type":"Feature","properties":{"name":"E.I. Tiro de Pichón","data6":"CATERING EL CANTARO SL","direccion":"CORREGIDOR ANTONIO DE BOBADILLA,29, 29006","empresa":2,"municipio":"Málaga"},"geometry":{"type":"Point","coordinates":[-4.450159,36.711863]}},{"type":"Feature","properties":{"name":"C.E.I.P. Pintor Denis Belgrano","data6":"CATERING EL CANTARO SL","direccion":"C/ JUAN VILLARRAZO, 36 (FINCA LA PALMA, 29010","empresa":2,"municipio":"Málaga"},"geometry":{"type":"Point","coordinates":[-4.470412,36.720843]}},{"type":"Feature","properties":{"name":"C.E.I.P. RECTORA ADELAIDA DE LA CALLE","data6":"CATERING EL CANTARO SL","direccion":"C/ ALICIA ALONSO, 1, 29010","empresa":2,"municipio":"Málaga"},"geometry":{"type":"Point","coordinates":[-4.487258,36.722806]}},{"type":"Feature","properties":{"name":"C.E.I.P. Pablo Neruda","data6":"CATERING EL CANTARO SL","direccion":"JOSE MANUEL PEREZ ESTRADA,7., 29006","empresa":2,"municipio":"Málaga"},"geometry":{"type":"Point","coordinates":[-4.489007,36.709248]}},{"type":"Feature","properties":{"name":"C.E.I.P. Profesor Tierno Galván","data6":"CATERING EL CANTARO SL","direccion":"ESQUILO,4., 29010","empresa":2,"municipio":"Málaga"},"geometry":{"type":"Point","coordinates":[-4.484699,36.721819]}},{"type":"Feature","properties":{"name":"C.E.I.P. Narixa","data6":"CATERING EL CANTARO SL","direccion":"AVDA.PESCIA S/N, 29780","empresa":2,"municipio":"Nerja"},"geometry":{"type":"Point","coordinates":[-3.874634,36.753505]}},{"type":"Feature","properties":{"name":"C.E.I.P. Simón Bolívar","data6":"CATERING EL CANTARO SL","direccion":"SANHEDON,5., 29006","empresa":2,"municipio":"Málaga"},"geometry":{"type":"Point","coordinates":[-4.455509,36.705607]}},{"type":"Feature","properties":{"name":"C.E.I.P. Las Albarizas","data6":"CATERING EL CANTARO SL","direccion":"LAS ALBARIZAS, 29600","empresa":2,"municipio":"Marbella"},"geometry":{"type":"Point","coordinates":[-4.871974,36.514649]}},{"type":"Feature","properties":{"name":"C.E.I.P. Miguel Hernández","data6":"CATERING EL CANTARO SL","direccion":"AV.DR.GUTIERREZ MATA,S/N., 29018","empresa":2,"municipio":"Málaga"},"geometry":{"type":"Point","coordinates":[-4.35127,36.719032]}},{"type":"Feature","properties":{"name":"C.E.I.P. Hernández Canovas","data6":"CATERING EL CANTARO SL","direccion":"C/ ANTONIO MORENO VERDEJO, 25, 29006","empresa":2,"municipio":"Málaga"},"geometry":{"type":"Point","coordinates":[-4.451949,36.708373]}},{"type":"Feature","properties":{"name":"C.E.I.P. Pedro Salinas","data6":"CATERING EL CANTARO SL","direccion":"MACIZO GALAICO,34, 29190","empresa":2,"municipio":"Málaga"},"geometry":{"type":"Point","coordinates":[-4.48981,36.746826]}},{"type":"Feature","properties":{"name":"C.E.I.P. Manolo Garvayo","data6":"CATERING EL CANTARO SL","direccion":"CARRIL DE SALYT,S/N., 29010","empresa":2,"municipio":"Málaga"},"geometry":{"type":"Point","coordinates":[-4.44782,36.726311]}},{"type":"Feature","properties":{"name":"C.E.I.P. Nuevo Guadaljaire","data6":"CATERING EL CANTARO SL","direccion":"DESCONOCIDO, 29001","empresa":2,"municipio":"Málaga"},"geometry":{"type":"Point","coordinates":[-4.459021,36.698135]}},{"type":"Feature","properties":{"name":"C.E.I.P. Antonio Machado","data6":"CATERING EL CANTARO SL","direccion":"PLAZA DE LA CONCORDIA,1., 29600","empresa":2,"municipio":"Marbella"},"geometry":{"type":"Point","coordinates":[-4.878244,36.517962]}},{"type":"Feature","properties":{"name":"C.E.I.P. Miguel de Cervantes","data6":"CATERING EL CANTARO SL","direccion":"ISLA CABRERA,4., 29640","empresa":2,"municipio":"Fuengirola"},"geometry":{"type":"Point","coordinates":[-4.630563,36.546311]}},{"type":"Feature","properties":{"name":"C.E.I.P. Enrique Ramos Ramos","data6":"CATERING EL CANTARO SL","direccion":"C/ BUENAVISTA S/N, 29750","empresa":2,"municipio":"Algarrobo"},"geometry":{"type":"Point","coordinates":[-4.047275,36.747257]}},{"type":"Feature","properties":{"name":"C.E.I.P. La Mata","data6":"CATERING EL CANTARO SL","direccion":"CRTA.ALHAURIN,S/N., 29570","empresa":2,"municipio":"Cártama"},"geometry":{"type":"Point","coordinates":[-4.638699,36.70769]}},{"type":"Feature","properties":{"name":"C.E.I.P. Hans Christian Andersen","data6":"CATERING EL CANTARO SL","direccion":"HUERTA JIMENEZ S/N., 29006","empresa":2,"municipio":"Málaga"},"geometry":{"type":"Point","coordinates":[-4.438546,36.709997]}},{"type":"Feature","properties":{"name":"C.P.R. Torrejaral","data6":"CATERING EL CANTARO SL","direccion":"URB. VALLE-MAR (VALLE-NIZA), 29791","empresa":2,"municipio":"Vélez-Málaga"},"geometry":{"type":"Point","coordinates":[-4.17356,36.718687]}},{"type":"Feature","properties":{"name":"C.E.I.P. Santa Amalia","data6":"CATERING EL CANTARO SL","direccion":"C/. MENDEZ NU¥EZ, S/N, 29640","empresa":2,"municipio":"Fuengirola"},"geometry":{"type":"Point","coordinates":[-4.62705,36.530175]}},{"type":"Feature","properties":{"name":"C.E.I.P. Azahar","data6":"CATERING EL CANTARO SL","direccion":"C/ FERIA DE JEREZ, 17, 29640","empresa":2,"municipio":"Fuengirola"},"geometry":{"type":"Point","coordinates":[-4.624236,36.548912]}},{"type":"Feature","properties":{"name":"C.P.R. Mariana Pineda","data6":"CATERING EL CANTARO SL","direccion":"CALLE RONDA DEL SUR, 4, 29569","empresa":2,"municipio":"Pizarra"},"geometry":{"type":"Point","coordinates":[-4.722209,36.743773]}},{"type":"Feature","properties":{"name":"C.E.I.P. Los Llanos","data6":"CATERING EL CANTARO SL","direccion":"URB. SANTA ROSA, S/N., 29770","empresa":2,"municipio":"Torrox"},"geometry":{"type":"Point","coordinates":[-3.97313,36.737858]}},{"type":"Feature","properties":{"name":"C.E.I.P. Valdelecrín","data6":"CATERING EL CANTARO SL","direccion":"C/ DE LA CANTERA, 10-URB.LOS PACOS, 29640","empresa":2,"municipio":"Fuengirola"},"geometry":{"type":"Point","coordinates":[-4.616739,36.564278]}},{"type":"Feature","properties":{"name":"I.E.S. Sierra de Mijas","data6":"CATERING EL CANTARO SL","direccion":"C/ RIO LAS PASADAS, 1, 29650","empresa":2,"municipio":"Mijas"},"geometry":{"type":"Point","coordinates":[-4.638672,36.543311]}},{"type":"Feature","properties":{"name":"I.E.S. Fernando de los Ríos","data6":"CATERING EL CANTARO SL","direccion":"C/ NTRA. SRA. DE LAS CANDELAS, 15, 29004","empresa":2,"municipio":"Málaga"},"geometry":{"type":"Point","coordinates":[-4.450394,36.68734]}},{"type":"Feature","properties":{"name":"I.E.S. Las Salinas","data6":"CATERING EL CANTARO SL","direccion":"C/ DOMINGO ORTEGA, 24, 29640","empresa":2,"municipio":"Fuengirola"},"geometry":{"type":"Point","coordinates":[-4.618638,36.55627]}},{"type":"Feature","properties":{"name":"C.E.I.P. La Parra","data6":"ARAMARK SERVICIOS DE CATERING SLU","direccion":"C/ POLIDEPORTIVO, 8, 29718","empresa":3,"municipio":"Almáchar"},"geometry":{"type":"Point","coordinates":[-4.217612,36.806583]}},{"type":"Feature","properties":{"name":"C.E.I.P. Jacaranda","data6":"ARAMARK SERVICIOS DE CATERING SLU","direccion":"MTO.GARCIA ALVAREZ S/N., 29639","empresa":3,"municipio":"Benalmádena"},"geometry":{"type":"Point","coordinates":[-4.569783,36.599746]}},{"type":"Feature","properties":{"name":"C.E.I.P. Ntra. Sra. del Rosario","data6":"ARAMARK SERVICIOS DE CATERING SLU","direccion":"CONSTITUCION S/N, 29370","empresa":3,"municipio":"Benaoján"},"geometry":{"type":"Point","coordinates":[-5.250554,36.722182]}},{"type":"Feature","properties":{"name":"C.E.I.P. Antonio Gala","data6":"ARAMARK SERVICIOS DE CATERING SLU","direccion":"MOJARIA S/N, 29718","empresa":3,"municipio":"El Borge"},"geometry":{"type":"Point","coordinates":[-4.233044,36.813358]}},{"type":"Feature","properties":{"name":"C.E.I.P. Nuestra Señora de Caños Santos","data6":"ARAMARK SERVICIOS DE CATERING SLU","direccion":"EL PRADO S/N, 29340","empresa":3,"municipio":"Cañete la Real"},"geometry":{"type":"Point","coordinates":[-5.026821,36.949684]}},{"type":"Feature","properties":{"name":"C.E.I.P. Ntra. Sra. del Rosario","data6":"ARAMARK SERVICIOS DE CATERING SLU","direccion":"C/TRAVESIA HERM.FERNANDEZ DE LA FUENTE, 29531","empresa":3,"municipio":"Humilladero"},"geometry":{"type":"Point","coordinates":[-4.701749,37.115099]}},{"type":"Feature","properties":{"name":"C.E.I.P. José Calderón","data6":"ARAMARK SERVICIOS DE CATERING SLU","direccion":"JACOB,21., 29590","empresa":3,"municipio":"Málaga"},"geometry":{"type":"Point","coordinates":[-4.548483,36.728145]}},{"type":"Feature","properties":{"name":"C.E.I.P. Ntra. Sra. de Gracia","data6":"ARAMARK SERVICIOS DE CATERING SLU","direccion":"C/FERRANDIZ, 2, 29012","empresa":3,"municipio":"Málaga"},"geometry":{"type":"Point","coordinates":[-4.413254,36.726651]}},{"type":"Feature","properties":{"name":"C.E.I.P. Luis Buñuel","data6":"ARAMARK SERVICIOS DE CATERING SLU","direccion":"AVDA. LOPE DE VEGA, 7, 29010","empresa":3,"municipio":"Málaga"},"geometry":{"type":"Point","coordinates":[-4.465762,36.7284]}},{"type":"Feature","properties":{"name":"C.E.I.P. Ángel Ganivet","data6":"ARAMARK SERVICIOS DE CATERING SLU","direccion":"LA ALBERCA, 5., 29014","empresa":3,"municipio":"Málaga"},"geometry":{"type":"Point","coordinates":[-4.419783,36.741704]}},{"type":"Feature","properties":{"name":"C.E.I.P. Cerro Coronado","data6":"ARAMARK SERVICIOS DE CATERING SLU","direccion":"DUERO S/N BARRIADA LA PALMA, 29011","empresa":3,"municipio":"Málaga"},"geometry":{"type":"Point","coordinates":[-4.430717,36.737731]}},{"type":"Feature","properties":{"name":"C.E.I.P. Mariana Pineda","data6":"ARAMARK SERVICIOS DE CATERING SLU","direccion":"AVDA. CIBELES, Nº 6 (ZONA FINCA MARÍA), 29000","empresa":3,"municipio":"Benalmádena"},"geometry":{"type":"Point","coordinates":[-4.555856,36.598027]}},{"type":"Feature","properties":{"name":"C.E.I.P. Jardín Botánico","data6":"ARAMARK SERVICIOS DE CATERING SLU","direccion":"AVDA. LAS HORTENSIAS, S/N (URB. JARDIN BOTÁNICO), 29000","empresa":3,"municipio":"Mijas"},"geometry":{"type":"Point","coordinates":[-4.688095,36.499816]}},{"type":"Feature","properties":{"name":"C.E.I.P. Carmen Martín Gaite","data6":"ARAMARK SERVICIOS DE CATERING SLU","direccion":"ANGELES NAVAS ATENCIA,12, 29730","empresa":3,"municipio":"Rincón de la Victoria"},"geometry":{"type":"Point","coordinates":[-4.284,36.721422]}},{"type":"Feature","properties":{"name":"C.E.I.P. Maicandil","data6":"ARAMARK SERVICIOS DE CATERING SLU","direccion":"AVDA DE LA PAZ, S/N, 29000","empresa":3,"municipio":"Manilva"},"geometry":{"type":"Point","coordinates":[-5.233951,36.365737]}},{"type":"Feature","properties":{"name":"C.E.I.P. Giner de los Ríos","data6":"ARAMARK SERVICIOS DE CATERING SLU","direccion":"AVDA.ORTEGA Y GASSET 12, 29006","empresa":3,"municipio":"Málaga"},"geometry":{"type":"Point","coordinates":[-4.443096,36.712047]}},{"type":"Feature","properties":{"name":"C.E.I.P. Atenea","data6":"ARAMARK SERVICIOS DE CATERING SLU","direccion":"PROLONGACION DE LA C/ AVA GADNER, S/N, 29000","empresa":3,"municipio":"Torremolinos"},"geometry":{"type":"Point","coordinates":[-4.489638,36.641642]}},{"type":"Feature","properties":{"name":"C.E.PR. Platero","data6":"ARAMARK SERVICIOS DE CATERING SLU","direccion":"COTO DOLORES S/N-URB.ELVIRIA., 29600","empresa":3,"municipio":"Marbella"},"geometry":{"type":"Point","coordinates":[-4.77828,36.497079]}},{"type":"Feature","properties":{"name":"C.E.I.P. Ntra. Sra. Virgen de la Peña","data6":"ARAMARK SERVICIOS DE CATERING SLU","direccion":"VIRGEN DE FATIMA, 2, 29650","empresa":3,"municipio":"Mijas"},"geometry":{"type":"Point","coordinates":[-4.632585,36.539415]}},{"type":"Feature","properties":{"name":"C.E.I.P. Isdabe del Mar","data6":"ARAMARK SERVICIOS DE CATERING SLU","direccion":"AVDA. MATAS VERDES. BDA ISDABE, 29688","empresa":3,"municipio":"Estepona"},"geometry":{"type":"Point","coordinates":[-5.016501,36.466706]}},{"type":"Feature","properties":{"name":"C.E.I.P. Gerardo Fernández","data6":"ARAMARK SERVICIOS DE CATERING SLU","direccion":"SANTILLAN,7, 29532","empresa":3,"municipio":"Mollina"},"geometry":{"type":"Point","coordinates":[-4.659353,37.125147]}},{"type":"Feature","properties":{"name":"C.E.I.P. Miguel de Cervantes","data6":"ARAMARK SERVICIOS DE CATERING SLU","direccion":"AVDA. DE MALAGA, 55, 29400","empresa":3,"municipio":"Ronda"},"geometry":{"type":"Point","coordinates":[-5.154058,36.749621]}},{"type":"Feature","properties":{"name":"C.E.I.P. Juan Carrillo","data6":"ARAMARK SERVICIOS DE CATERING SLU","direccion":"AVDA. DE ANDALUCIA, 24, 29400","empresa":3,"municipio":"Ronda"},"geometry":{"type":"Point","coordinates":[-5.162585,36.747565]}},{"type":"Feature","properties":{"name":"C.E.I.P. Vicente Espinel","data6":"ARAMARK SERVICIOS DE CATERING SLU","direccion":"GRANADA,47, 29400","empresa":3,"municipio":"Ronda"},"geometry":{"type":"Point","coordinates":[-5.158876,36.745954]}},{"type":"Feature","properties":{"name":"C.E.I.P. Ntra. Sra. de la Paz","data6":"ARAMARK SERVICIOS DE CATERING SLU","direccion":"LAURIA, 24, 29400","empresa":3,"municipio":"Ronda"},"geometry":{"type":"Point","coordinates":[-5.164318,36.745589]}},{"type":"Feature","properties":{"name":"C.E.I.P. Virgen del Rosario","data6":"ARAMARK SERVICIOS DE CATERING SLU","direccion":"AVDA.ANDALUCIA, 16, 29197","empresa":3,"municipio":"Totalán"},"geometry":{"type":"Point","coordinates":[-4.297812,36.763335]}},{"type":"Feature","properties":{"name":"C.E.I.P. Maruja Mallo","data6":"ARAMARK SERVICIOS DE CATERING SLU","direccion":"URB.TARALTE-C/ NELSON MANDELA, 29130","empresa":3,"municipio":"Alhaurín de la Torre"},"geometry":{"type":"Point","coordinates":[-4.580078,36.658216]}},{"type":"Feature","properties":{"name":"C.E.I.P. María del Mar Romera","data6":"ARAMARK SERVICIOS DE CATERING SLU","direccion":"URB. PARQUE VICTORIA, 29720","empresa":3,"municipio":"Rincón de la Victoria"},"geometry":{"type":"Point","coordinates":[-4.297721,36.73087]}},{"type":"Feature","properties":{"name":"C.E.I.P. María Zambrano","data6":"ARAMARK SERVICIOS DE CATERING SLU","direccion":"VICENTE ALEIXANDRE Nº3, 29651","empresa":3,"municipio":"Mijas"},"geometry":{"type":"Point","coordinates":[-4.642031,36.548995]}},{"type":"Feature","properties":{"name":"C.E.I.P. Carmen de Burgos","data6":"ARAMARK SERVICIOS DE CATERING SLU","direccion":"C/ DOCTOR MIGUEL DIAZ RECIO,27, 29010","empresa":3,"municipio":"Málaga"},"geometry":{"type":"Point","coordinates":[-4.464693,36.723091]}},{"type":"Feature","properties":{"name":"C.E.I.P. Josefina Aldecoa","data6":"ARAMARK SERVICIOS DE CATERING SLU","direccion":"PUTT S/N URBANIZACION AÑORETA GOLF, 29738","empresa":3,"municipio":"Rincón de la Victoria"},"geometry":{"type":"Point","coordinates":[-4.246574,36.716332]}},{"type":"Feature","properties":{"name":"C.E.I.P. Ramón del Valle Inclán","data6":"ARAMARK SERVICIOS DE CATERING SLU","direccion":"ESCULTOR MARIN HIGUEROS, S/N., 29017","empresa":3,"municipio":"Málaga"},"geometry":{"type":"Point","coordinates":[-4.364903,36.721225]}},{"type":"Feature","properties":{"name":"C.E.I.P. Los Guindos","data6":"ARAMARK SERVICIOS DE CATERING SLU","direccion":"AVDA.GREGORIO DIEGO,41., 29004","empresa":3,"municipio":"Málaga"},"geometry":{"type":"Point","coordinates":[-4.449758,36.689066]}},{"type":"Feature","properties":{"name":"C.E.I.P. Rafael Alberti","data6":"ARAMARK SERVICIOS DE CATERING SLU","direccion":"MARQUES DE MANTUA,13 (JARDIN DE MALAGA, 29014","empresa":3,"municipio":"Málaga"},"geometry":{"type":"Point","coordinates":[-4.414913,36.750684]}},{"type":"Feature","properties":{"name":"E.I. San Sebastián","data6":"ARAMARK SERVICIOS DE CATERING SLU","direccion":"MERCADILLO, 1-2., 29100","empresa":3,"municipio":"Coín"},"geometry":{"type":"Point","coordinates":[-4.754283,36.661233]}},{"type":"Feature","properties":{"name":"C.E.I.P. Alegría de la Huerta","data6":"ARAMARK SERVICIOS DE CATERING SLU","direccion":"C/ BORDE ALEGRE, 12, 29014","empresa":3,"municipio":"Málaga"},"geometry":{"type":"Point","coordinates":[-4.419643,36.750276]}},{"type":"Feature","properties":{"name":"C.E.I.P. Indira Gandhi","data6":"ARAMARK SERVICIOS DE CATERING SLU","direccion":"VICENTE ALEXANDRE, 29000","empresa":3,"municipio":"Mijas"},"geometry":{"type":"Point","coordinates":[-4.646519,36.54269]}},{"type":"Feature","properties":{"name":"C.E.I.P. Benito Pérez Galdós","data6":"ARAMARK SERVICIOS DE CATERING SLU","direccion":"VENTILLAS DE TOLEDO, S/N, 29014","empresa":3,"municipio":"Málaga"},"geometry":{"type":"Point","coordinates":[-4.421349,36.752909]}},{"type":"Feature","properties":{"name":"C.E.I.P. SYALIS","data6":"ARAMARK SERVICIOS DE CATERING SLU","direccion":"C/ MARIA DE LAS MERCEDES, S/N, 29640","empresa":3,"municipio":"Fuengirola"},"geometry":{"type":"Point","coordinates":[-4.614453,36.570273]}},{"type":"Feature","properties":{"name":"C.E.I.P. Valeriano López","data6":"ARAMARK SERVICIOS DE CATERING SLU","direccion":"CRTA. A RONDA NORTE - AUTOVIA, 29680","empresa":3,"municipio":"Estepona"},"geometry":{"type":"Point","coordinates":[-5.149684,36.437173]}},{"type":"Feature","properties":{"name":"C.E.I.P. LAS NACIONES","data6":"ARAMARK SERVICIOS DE CATERING SLU","direccion":"ALFDARERO Nº 1, 29700","empresa":3,"municipio":"Vélez-Málaga"},"geometry":{"type":"Point","coordinates":[-4.106199,36.774723]}},{"type":"Feature","properties":{"name":"C.E.I.P. Los Jarales","data6":"ARAMARK SERVICIOS DE CATERING SLU","direccion":"AVD. LANCELOT S/N, 29738","empresa":3,"municipio":"Rincón de la Victoria"},"geometry":{"type":"Point","coordinates":[-4.265655,36.72215]}},{"type":"Feature","properties":{"name":"C.E.I.P. MARIO VARGAS LLOSA","data6":"ARAMARK SERVICIOS DE CATERING SLU","direccion":"URB. LA FLORIDA - C/ TRAPICHE, S/N, 29600","empresa":3,"municipio":"Marbella"},"geometry":{"type":"Point","coordinates":[-4.888954,36.520698]}},{"type":"Feature","properties":{"name":"C.E.I.P. María de la O","data6":"ARAMARK SERVICIOS DE CATERING SLU","direccion":"BDA. LOS ASPERONES, 29010","empresa":3,"municipio":"Málaga"},"geometry":{"type":"Point","coordinates":[-4.501967,36.722031]}},{"type":"Feature","properties":{"name":"C.E.PR. El Chaparral","data6":"ARAMARK SERVICIOS DE CATERING SLU","direccion":"URBANIZACION EL LIMONAR, S/N., 29649","empresa":3,"municipio":"Mijas"},"geometry":{"type":"Point","coordinates":[-4.677451,36.509546]}},{"type":"Feature","properties":{"name":"C.E.I.P. Manuel Laza Palacio","data6":"ARAMARK SERVICIOS DE CATERING SLU","direccion":"C/ ESCUELA, S/N., 29730","empresa":3,"municipio":"Rincón de la Victoria"},"geometry":{"type":"Point","coordinates":[-4.284878,36.717145]}},{"type":"Feature","properties":{"name":"C.E.I.P. Las Flores","data6":"ARAMARK SERVICIOS DE CATERING SLU","direccion":"OB.BARTOLOME ESPEJO 20-URB.LAS FLORES, 29014","empresa":3,"municipio":"Málaga"},"geometry":{"type":"Point","coordinates":[-4.419563,36.734887]}},{"type":"Feature","properties":{"name":"C.E.I.P. Rosa de Gálvez","data6":"ARAMARK SERVICIOS DE CATERING SLU","direccion":"AVD. JANE BOWLES, 34 ( CIUDAD JARDIN), 29014","empresa":3,"municipio":"Málaga"},"geometry":{"type":"Point","coordinates":[-4.426711,36.74956]}},{"type":"Feature","properties":{"name":"I.E.S. Los Montecillos","data6":"ARAMARK SERVICIOS DE CATERING SLU","direccion":"CTRA. DE MIJAS KM 1,5, 29100","empresa":3,"municipio":"Coín"},"geometry":{"type":"Point","coordinates":[-4.747942,36.647937]}},{"type":"Feature","properties":{"name":"C.E.I.P. Lex Flavia Malacitana","data6":"ARAMARK SERVICIOS DE CATERING SLU","direccion":"PLAZA LEX FLAVIA, Nº 5, 29013","empresa":3,"municipio":"Málaga"},"geometry":{"type":"Point","coordinates":[-4.417692,36.73026]}},{"type":"Feature","properties":{"name":"I.E.S. Mayorazgo","data6":"ARAMARK SERVICIOS DE CATERING SLU","direccion":"LA ESPUELA, 12, 29016","empresa":3,"municipio":"Málaga"},"geometry":{"type":"Point","coordinates":[-4.400593,36.730769]}},{"type":"Feature","properties":{"name":"I.E.S. Mediterráneo","data6":"ARAMARK SERVICIOS DE CATERING SLU","direccion":"C/ IDUMEA, S/N, 29018","empresa":3,"municipio":"Málaga"},"geometry":{"type":"Point","coordinates":[-4.353207,36.722517]}},{"type":"Feature","properties":{"name":"C.E.I.P. San Ignacio","data6":"ARAMARK SERVICIOS DE CATERING SLU","direccion":"JUAN CARLOS I,21., 29520","empresa":3,"municipio":"Fuente de Piedra"},"geometry":{"type":"Point","coordinates":[-4.731807,37.135516]}},{"type":"Feature","properties":{"name":"C.E.I.P. Tamixa","data6":"ARAMARK SERVICIOS DE CATERING SLU","direccion":"C/ VICENTE ALEIXANDRE, S/N, 29649","empresa":3,"municipio":"Mijas"},"geometry":{"type":"Point","coordinates":[-4.643289,36.550263]}},{"type":"Feature","properties":{"name":"C.E.I.P. San Miguel","data6":"ARAMARK SERVICIOS DE CATERING SLU","direccion":"C/ LOMA DEL COLEGIAL, 11, 29620","empresa":3,"municipio":"Torremolinos"},"geometry":{"type":"Point","coordinates":[-4.504405,36.624459]}},{"type":"Feature","properties":{"name":"R.E. Andalucía","data6":"AUSOLAN RCS S.L.","direccion":"C/ JULIO VERNE, 6, 29190","empresa":4,"municipio":"Málaga"},"geometry":{"type":"Point","coordinates":[-4.466478,36.734181]}},{"type":"Feature","properties":{"name":"I.E.S. Núm. 1. Universidad Laboral","data6":"AUSOLAN RCS S.L.","direccion":"C/ JULIO VERNE, 6, 29080","empresa":4,"municipio":"Málaga"},"geometry":{"type":"Point","coordinates":[-4.464131,36.733517]}}]}